COSMOS 1933             
1 18958U 88020A   26024.48681296  .00008016  00000+0  39766-3 0  9995
2 18958  82.5140 294.6356 0004696  18.4163 341.7240 15.17568575 43521
SL-3 R/B                
1 19046U 88032B   26024.48263079  .00009741  00000+0  46018-3 0  9996
2 19046  97.5135   7.9336 0027443  31.8420 328.4466 15.19286824 45398
SL-16 R/B               
1 19120U 88039B   26024.44780815 -.00000034  00000+0  67937-5 0  9996
2 19120  71.0145 162.0965 0020179  43.5016 316.7697 14.19608747952103
COSMOS 1953             
1 19210U 88050A   26024.48918145  .00013370  00000+0  49379-3 0  9996
2 19210  82.5076 202.6647 0010417 281.6077  78.3993 15.27574318 31033
SL-8 R/B                
1 19257U 88053B   26023.53345652  .00000417  00000+0  14352-3 0  9993
2 19257  74.0458 195.6913 0019690  24.8383  31.1884 14.38886072970100
COSMOS 1975             
1 19573U 88093A   26024.44594801  .00013770  00000+0  51415-3 0  9998
2 19573  82.5217 162.0541 0010903 331.1610  28.9025 15.27207794 12653
SL-14 R/B               
1 19574U 88093B   26024.40180602  .00000825  00000+0  92166-4 0  9991
2 19574  82.5296  83.6299 0020688 180.4820 190.3250 14.85605497994465
SL-16 R/B               
1 19650U 88102B   26024.33419131 -.00000040  00000+0  41498-5 0  9994
2 19650  70.9977 244.8226 0011920  75.9510 284.2937 14.16148212920613
INTERCOSMOS 24          
1 20261U 89080A   26024.40235681  .00000786  00000+0  22471-3 0  9998
2 20261  82.6079 133.2207 1188800  35.6125 331.8675 12.59499237661222
SL-14 R/B               
1 20262U 89080C   26024.46724367  .00000400  00000+0  12150-3 0  9995
2 20262  82.5921 201.5804 1229534 285.9033  61.0156 12.50445078654625
DELTA 1 R/B             
1 20323U 89089B   26024.54446602  .00000775  00000+0  20074-3 0  9993
2 20323  97.0732 238.9948 0067554 262.1204  97.2322 14.50619783889337
ARIANE 40 R/B           
1 20443U 90005H   26024.40828119  .00000625  00000+0  21254-3 0  9993
2 20443  98.3177  86.3680 0009605 344.6590  15.4306 14.39837320886430
