CCSDS_OMM_VERS = 2.0
CREATION_DATE  = 
ORIGINATOR     = 

OBJECT_NAME    = COSMOS 1933
OBJECT_ID      = 1988-020A
CENTER_NAME    = EARTH
REF_FRAME      = TEME
TIME_SYSTEM    = UTC
MEAN_ELEMENT_THEORY = SGP/SGP4

EPOCH          = 2026-01-24T11:41:00.639744
MEAN_MOTION    = 15.17568575
ECCENTRICITY   = .0004696
INCLINATION    = 82.5140
RA_OF_ASC_NODE = 294.6356
ARG_OF_PERICENTER = 18.4163
MEAN_ANOMALY   = 341.7240

EPHEMERIS_TYPE = 0
CLASSIFICATION_TYPE = U
NORAD_CAT_ID   = 18958
ELEMENT_SET_NO = 999
REV_AT_EPOCH   = 4352
BSTAR          = .39766E-3
MEAN_MOTION_DOT = .8016E-4
MEAN_MOTION_DDOT = 0

CCSDS_OMM_VERS = 2.0
CREATION_DATE  = 
ORIGINATOR     = 

OBJECT_NAME    = SL-3 R/B
OBJECT_ID      = 1988-032B
CENTER_NAME    = EARTH
REF_FRAME      = TEME
TIME_SYSTEM    = UTC
MEAN_ELEMENT_THEORY = SGP/SGP4

EPOCH          = 2026-01-24T11:34:59.300256
MEAN_MOTION    = 15.19286824
ECCENTRICITY   = .0027443
INCLINATION    = 97.5135
RA_OF_ASC_NODE = 7.9336
ARG_OF_PERICENTER = 31.8420
MEAN_ANOMALY   = 328.4466

EPHEMERIS_TYPE = 0
CLASSIFICATION_TYPE = U
NORAD_CAT_ID   = 19046
ELEMENT_SET_NO = 999
REV_AT_EPOCH   = 4539
BSTAR          = .46018E-3
MEAN_MOTION_DOT = .9741E-4
MEAN_MOTION_DDOT = 0

CCSDS_OMM_VERS = 2.0
CREATION_DATE  = 
ORIGINATOR     = 

OBJECT_NAME    = SL-16 R/B
OBJECT_ID      = 1988-039B
CENTER_NAME    = EARTH
REF_FRAME      = TEME
TIME_SYSTEM    = UTC
MEAN_ELEMENT_THEORY = SGP/SGP4

EPOCH          = 2026-01-24T10:44:50.624160
MEAN_MOTION    = 14.19608747
ECCENTRICITY   = .0020179
INCLINATION    = 71.0145
RA_OF_ASC_NODE = 162.0965
ARG_OF_PERICENTER = 43.5016
MEAN_ANOMALY   = 316.7697

EPHEMERIS_TYPE = 0
CLASSIFICATION_TYPE = U
NORAD_CAT_ID   = 19120
ELEMENT_SET_NO = 999
REV_AT_EPOCH   = 95210
BSTAR          = .67937E-5
MEAN_MOTION_DOT = -.34E-6
MEAN_MOTION_DDOT = 0

CCSDS_OMM_VERS = 2.0
CREATION_DATE  = 
ORIGINATOR     = 

OBJECT_NAME    = COSMOS 1953
OBJECT_ID      = 1988-050A
CENTER_NAME    = EARTH
REF_FRAME      = TEME
TIME_SYSTEM    = UTC
MEAN_ELEMENT_THEORY = SGP/SGP4

EPOCH          = 2026-01-24T11:44:25.277280
MEAN_MOTION    = 15.27574318
ECCENTRICITY   = .0010417
INCLINATION    = 82.5076
RA_OF_ASC_NODE = 202.6647
ARG_OF_PERICENTER = 281.6077
MEAN_ANOMALY   = 78.3993

EPHEMERIS_TYPE = 0
CLASSIFICATION_TYPE = U
NORAD_CAT_ID   = 19210
ELEMENT_SET_NO = 999
REV_AT_EPOCH   = 3103
BSTAR          = .49379E-3
MEAN_MOTION_DOT = .1337E-3
MEAN_MOTION_DDOT = 0

CCSDS_OMM_VERS = 2.0
CREATION_DATE  = 
ORIGINATOR     = 

OBJECT_NAME    = SL-8 R/B
OBJECT_ID      = 1988-053B
CENTER_NAME    = EARTH
REF_FRAME      = TEME
TIME_SYSTEM    = UTC
MEAN_ELEMENT_THEORY = SGP/SGP4

EPOCH          = 2026-01-23T12:48:10.643328
MEAN_MOTION    = 14.38886072
ECCENTRICITY   = .00196903
INCLINATION    = 74.0458
RA_OF_ASC_NODE = 195.6913
ARG_OF_PERICENTER = 24.8383
MEAN_ANOMALY   = 31.1884

EPHEMERIS_TYPE = 0
CLASSIFICATION_TYPE = U
NORAD_CAT_ID   = 19257
ELEMENT_SET_NO = 999
REV_AT_EPOCH   = 97010
BSTAR          = .14352306E-3
MEAN_MOTION_DOT = .417E-5
MEAN_MOTION_DDOT = 0

CCSDS_OMM_VERS = 2.0
CREATION_DATE  = 
ORIGINATOR     = 

OBJECT_NAME    = COSMOS 1975
OBJECT_ID      = 1988-093A
CENTER_NAME    = EARTH
REF_FRAME      = TEME
TIME_SYSTEM    = UTC
MEAN_ELEMENT_THEORY = SGP/SGP4

EPOCH          = 2026-01-24T10:42:09.908064
MEAN_MOTION    = 15.27207794
ECCENTRICITY   = .0010903
INCLINATION    = 82.5217
RA_OF_ASC_NODE = 162.0541
ARG_OF_PERICENTER = 331.1610
MEAN_ANOMALY   = 28.9025

EPHEMERIS_TYPE = 0
CLASSIFICATION_TYPE = U
NORAD_CAT_ID   = 19573
ELEMENT_SET_NO = 999
REV_AT_EPOCH   = 1265
BSTAR          = .51415E-3
MEAN_MOTION_DOT = .1377E-3
MEAN_MOTION_DDOT = 0

CCSDS_OMM_VERS = 2.0
CREATION_DATE  = 
ORIGINATOR     = 

OBJECT_NAME    = SL-14 R/B
OBJECT_ID      = 1988-093B
CENTER_NAME    = EARTH
REF_FRAME      = TEME
TIME_SYSTEM    = UTC
MEAN_ELEMENT_THEORY = SGP/SGP4

EPOCH          = 2026-01-24T09:38:36.040128
MEAN_MOTION    = 14.85605497
ECCENTRICITY   = .0020688
INCLINATION    = 82.5296
RA_OF_ASC_NODE = 83.6299
ARG_OF_PERICENTER = 180.4820
MEAN_ANOMALY   = 190.3250

EPHEMERIS_TYPE = 0
CLASSIFICATION_TYPE = U
NORAD_CAT_ID   = 19574
ELEMENT_SET_NO = 999
REV_AT_EPOCH   = 99446
BSTAR          = .92166E-4
MEAN_MOTION_DOT = .825E-5
MEAN_MOTION_DDOT = 0

CCSDS_OMM_VERS = 2.0
CREATION_DATE  = 
ORIGINATOR     = 

OBJECT_NAME    = SL-16 R/B
OBJECT_ID      = 1988-102B
CENTER_NAME    = EARTH
REF_FRAME      = TEME
TIME_SYSTEM    = UTC
MEAN_ELEMENT_THEORY = SGP/SGP4

EPOCH          = 2026-01-24T08:01:14.129184
MEAN_MOTION    = 14.16148212
ECCENTRICITY   = .001192
INCLINATION    = 70.9977
RA_OF_ASC_NODE = 244.8226
ARG_OF_PERICENTER = 75.9510
MEAN_ANOMALY   = 284.2937

EPHEMERIS_TYPE = 0
CLASSIFICATION_TYPE = U
NORAD_CAT_ID   = 19650
ELEMENT_SET_NO = 999
REV_AT_EPOCH   = 92061
BSTAR          = .41498E-5
MEAN_MOTION_DOT = -.4E-6
MEAN_MOTION_DDOT = 0

CCSDS_OMM_VERS = 2.0
CREATION_DATE  = 
ORIGINATOR     = 

OBJECT_NAME    = INTERCOSMOS 24
OBJECT_ID      = 1989-080A
CENTER_NAME    = EARTH
REF_FRAME      = TEME
TIME_SYSTEM    = UTC
MEAN_ELEMENT_THEORY = SGP/SGP4

EPOCH          = 2026-01-24T09:39:23.628384
MEAN_MOTION    = 12.59499237
ECCENTRICITY   = .11888
INCLINATION    = 82.6079
RA_OF_ASC_NODE = 133.2207
ARG_OF_PERICENTER = 35.6125
MEAN_ANOMALY   = 331.8675

EPHEMERIS_TYPE = 0
CLASSIFICATION_TYPE = U
NORAD_CAT_ID   = 20261
ELEMENT_SET_NO = 999
REV_AT_EPOCH   = 66122
BSTAR          = .22471E-3
MEAN_MOTION_DOT = .786E-5
MEAN_MOTION_DDOT = 0

CCSDS_OMM_VERS = 2.0
CREATION_DATE  = 
ORIGINATOR     = 

OBJECT_NAME    = SL-14 R/B
OBJECT_ID      = 1989-080C
CENTER_NAME    = EARTH
REF_FRAME      = TEME
TIME_SYSTEM    = UTC
MEAN_ELEMENT_THEORY = SGP/SGP4

EPOCH          = 2026-01-24T11:12:49.853088
MEAN_MOTION    = 12.50445078
ECCENTRICITY   = .1229534
INCLINATION    = 82.5921
RA_OF_ASC_NODE = 201.5804
ARG_OF_PERICENTER = 285.9033
MEAN_ANOMALY   = 61.0156

EPHEMERIS_TYPE = 0
CLASSIFICATION_TYPE = U
NORAD_CAT_ID   = 20262
ELEMENT_SET_NO = 999
REV_AT_EPOCH   = 65462
BSTAR          = .1215E-3
MEAN_MOTION_DOT = .4E-5
MEAN_MOTION_DDOT = 0

CCSDS_OMM_VERS = 2.0
CREATION_DATE  = 
ORIGINATOR     = 

OBJECT_NAME    = DELTA 1 R/B
OBJECT_ID      = 1989-089B
CENTER_NAME    = EARTH
REF_FRAME      = TEME
TIME_SYSTEM    = UTC
MEAN_ELEMENT_THEORY = SGP/SGP4

EPOCH          = 2026-01-24T13:04:01.864128
MEAN_MOTION    = 14.50619783
ECCENTRICITY   = .0067554
INCLINATION    = 97.0732
RA_OF_ASC_NODE = 238.9948
ARG_OF_PERICENTER = 262.1204
MEAN_ANOMALY   = 97.2322

EPHEMERIS_TYPE = 0
CLASSIFICATION_TYPE = U
NORAD_CAT_ID   = 20323
ELEMENT_SET_NO = 999
REV_AT_EPOCH   = 88933
BSTAR          = .20074E-3
MEAN_MOTION_DOT = .775E-5
MEAN_MOTION_DDOT = 0

CCSDS_OMM_VERS = 2.0
CREATION_DATE  = 
ORIGINATOR     = 

OBJECT_NAME    = ARIANE 40 R/B
OBJECT_ID      = 1990-005H
CENTER_NAME    = EARTH
REF_FRAME      = TEME
TIME_SYSTEM    = UTC
MEAN_ELEMENT_THEORY = SGP/SGP4

EPOCH          = 2026-01-24T09:47:55.494816
MEAN_MOTION    = 14.39837320
ECCENTRICITY   = .0009605
INCLINATION    = 98.3177
RA_OF_ASC_NODE = 86.3680
ARG_OF_PERICENTER = 344.6590
MEAN_ANOMALY   = 15.4306

EPHEMERIS_TYPE = 0
CLASSIFICATION_TYPE = U
NORAD_CAT_ID   = 20443
ELEMENT_SET_NO = 999
REV_AT_EPOCH   = 88643
BSTAR          = .21254E-3
MEAN_MOTION_DOT = .625E-5
MEAN_MOTION_DDOT = 0

